DONGPO 10               
1 54689U 22167H   26140.28545779  .00007587  00000+0  23444-3 0  9996
2 54689  97.6931 309.2597 0004740 197.0912 163.0171 15.33824374191086
JILIN-1 GAOFEN 03D48    
1 54695U 22167P   26140.29682616  .00007895  00000+0  23820-3 0  9996
2 54695  97.6865 308.6408 0006016 204.5220 155.5737 15.34561996191114
STAR VIBE               
1 55009U 23001A   26140.20493367  .00010524  00000+0  25062-3 0  9991
2 55009  97.3181 204.5710 0005366 197.5700 162.5362 15.41775016187916
BRO-8                   
1 55011U 23001C   26140.25448039  .00022199  00000+0  43724-3 0  9991
2 55011  97.3223 205.0723 0005727 204.4788 155.6191 15.47225000187889
CONNECTA T1.2           
1 55012U 23001D   26140.27484169  .00029144  00000+0  54762-3 0  9999
2 55012  97.3283 210.5127 0006581 181.5344 178.5888 15.48526978188222
BIRKELAND               
1 55015U 23001G   26140.26766860  .00007614  00000+0  19578-3 0  9996
2 55015  97.3351 208.1757 0006541 190.4571 169.6540 15.39536830188055
ION SCV-008             
1 55051U 23001AU  26140.21666023  .00004652  00000+0  17153-3 0  9997
2 55051  97.5696 236.0776 0016482 110.4655 249.8356 15.28191224187068
ION SCV-007             
1 55060U 23001BD  26140.16139428  .00000259  00000+0  43374-4 0  9999
2 55060  97.9021 203.7304 0013688  69.3460 290.9217 14.77524338182116
HUYGENS                 
1 55093U 23001CN  26140.26775174  .00007016  00000+0  18043-3 0  9992
2 55093  97.3258 207.4417 0009978 173.6041 186.5334 15.39534557188079
SHARJAHSAT-1            
1 55104U 23001CZ  26140.26111372  .00014015  00000+0  27017-3 0  9997
2 55104  97.3180 208.6619 0005911 186.2876 173.8302 15.47945667188174
HORUS 1                 
1 55690U 23025A   26140.30290895  .00003980  00000+0  17085-3 0  9999
2 55690  97.3464 215.4825 0001057 134.9711 225.1612 15.23269140179803
HORUS 2                 
1 55844U 23032A   26140.27289155  .00003963  00000+0  16925-3 0  9994
2 55844  97.3534 216.2314 0003086 132.3459 227.8040 15.23450930177237
GLOBAL-19               
1 55982U 23041B   26140.05167147  .00010734  00000+0  28344-3 0  9991
2 55982  42.0028   6.0370 0005426 156.9364 203.1720 15.38413113177598
BRO-9                   
1 56185U 23054H   26139.79656053  .00200151  00000+0  89492-3 0  9994
2 56185  97.2966  56.1505 0008086 118.2434 241.9653 15.83643171174576
ION SCV-010             
1 56192U 23054Q   26140.22702767  .00003125  00000+0  12448-3 0  9995
2 56192  97.3810  30.0851 0011415 309.1687  50.8536 15.25923837171939
TELEOS-2                
1 56310U 23057C   26140.29581141  .00004533  00000+0  33043-3 0  9996
2 56310   9.9888  47.2570 0000836 263.8816  96.1302 14.96364654168616
SNIPE 4                 
1 56744U 23072B   26140.24063829  .00016010  00000+0  38789-3 0  9992
2 56744  97.5274 345.3816 0006929  74.5191 285.6820 15.41147397165808
SNIPE 2                 
1 56745U 23072C   26140.29717825  .00019808  00000+0  41674-3 0  9995
2 56745  97.5269 348.2970 0006422  98.9516 261.2460 15.45319076165938
2023-072G               
1 56749U 23072G   26140.29831084  .00021893  00000+0  40734-3 0  9996
2 56749  97.4926 347.0737 0005570  90.4548 269.7341 15.48876397166146
GEISAT PRECURSOR        
1 56934U 23084C   26140.30807410  .00005149  00000+0  15789-3 0  9991
2 56934  97.6192 280.3588 0007190  88.8456 271.3610 15.34223993163251
BLACKJACK ACES-3        
1 56950U 23084U   26140.29384634  .00003088  00000+0  15412-3 0  9998
2 56950  97.6178 275.2833 0004072 101.3106 258.8586 15.18276046162933
BLACKJACK ACES-2        
1 56955U 23084Z   26140.10262686  .00003652  00000+0  18162-3 0  9997
2 56955  97.6173 275.1757 0002411  90.9568 269.1942 15.18281513162911
BLACKJACK ACES-1        
1 56956U 23084AA  26140.28829773  .00004357  00000+0  21649-3 0  9990
2 56956  97.6168 275.1399 0001512  95.0504 265.0903 15.18200820112666
ION SCV-011             
1 56957U 23084AB  26140.24723000  .00003693  00000+0  13607-3 0  9990
2 56957  98.1382 324.9447 0008333 129.2040 230.9938 15.28539869161540
GHOST-3                 
1 56958U 23084AC  26140.16258487  .00012719  00000+0  25461-3 0  9994
2 56958  97.6190 287.2590 0006745  45.9475 314.2329 15.46880506163687
TOMORROW-R2             
1 56962U 23084AG  26140.17607035  .00168741  12592-4  55703-3 0  9990
2 56962  97.5947 300.7420 0002650 268.6073  91.4896 15.90445281164582
AFR-1                   
1 56964U 23084AJ  26140.34267017  .00003168  00000+0  11763-3 0  9998
2 56964  97.6240 276.3757 0011994  79.6937 280.5654 15.28286845162976
METEOR-M2 3             
1 57166U 23091A   26140.27457787 -.00000016  00000+0  11805-4 0  9996
2 57166  98.6097 195.8211 0002873 243.2237 116.8648 14.24044119150545
UMKA 1 (RS40S)          
1 57172U 23091G   26140.12725824  .00004016  00000+0  18691-3 0  9999
2 57172  97.5063 198.9372 0012084 210.7613 149.2915 15.20457496159748
2023-091H               
1 57173U 23091H   26140.29097136  .00007429  00000+0  27472-3 0  9994
2 57173  97.5057 203.2691 0009538 202.7976 157.2841 15.27962849160041
