OBJECT_NAME,OBJECT_ID,EPOCH,MEAN_MOTION,ECCENTRICITY,INCLINATION,RA_OF_ASC_NODE,ARG_OF_PERICENTER,MEAN_ANOMALY,EPHEMERIS_TYPE,CLASSIFICATION_TYPE,NORAD_CAT_ID,ELEMENT_SET_NO,REV_AT_EPOCH,BSTAR,MEAN_MOTION_DOT,MEAN_MOTION_DDOT
DONGPO 10,2022-167H,2026-05-20T06:51:03.553056,15.33824374,.00047401,97.6931,309.2597,197.0912,163.0171,0,U,54689,999,19108,.23444061E-3,.7587E-4,0
JILIN-1 GAOFEN 03D48,2022-167P,2026-05-20T07:07:25.780224,15.34561996,.00060165,97.6865,308.6408,204.5220,155.5737,0,U,54695,999,19111,.23819891E-3,.7895E-4,0
STAR VIBE,2023-001A,2026-05-20T04:55:06.269088,15.41775016,.00053661,97.3181,204.5710,197.5700,162.5362,0,U,55009,999,18791,.25061885E-3,.10524E-3,0
BRO-8,2023-001C,2026-05-20T06:06:27.105696,15.47225000,.00057272,97.3223,205.0723,204.4788,155.6191,0,U,55011,999,18788,.43724202E-3,.22199E-3,0
CONNECTA T1.2,2023-001D,2026-05-20T06:35:46.322016,15.48526978,.00065814,97.3283,210.5127,181.5344,178.5888,0,U,55012,999,18822,.54762248E-3,.29144E-3,0
BIRKELAND,2023-001G,2026-05-20T06:25:26.567040,15.39536830,.00065417,97.3351,208.1757,190.4571,169.6540,0,U,55015,999,18805,.19578231E-3,.7614E-4,0
ION SCV-008,2023-001AU,2026-05-20T05:11:59.443872,15.28191224,.00164828,97.5696,236.0776,110.4655,249.8356,0,U,55051,999,18706,.17152958E-3,.4652E-4,0
ION SCV-007,2023-001BD,2026-05-20T03:52:24.465792,14.77524338,.00136882,97.9021,203.7304,69.3460,290.9217,0,U,55060,999,18211,.43373576E-4,.259E-5,0
HUYGENS,2023-001CN,2026-05-20T06:25:33.750336,15.39534557,.0009978,97.3258,207.4417,173.6041,186.5334,0,U,55093,999,18807,.1804261E-3,.7016E-4,0
SHARJAHSAT-1,2023-001CZ,2026-05-20T06:16:00.225408,15.47945667,.00059112,97.3180,208.6619,186.2876,173.8302,0,U,55104,999,18817,.27017358E-3,.14015E-3,0
HORUS 1,2023-025A,2026-05-20T07:16:11.333280,15.23269140,.00010576,97.3464,215.4825,134.9711,225.1612,0,U,55690,999,17980,.17084931E-3,.398E-4,0
HORUS 2,2023-032A,2026-05-20T06:32:57.829920,15.23450930,.00030863,97.3534,216.2314,132.3459,227.8040,0,U,55844,999,17723,.16925403E-3,.3963E-4,0
GLOBAL-19,2023-041B,2026-05-20T01:14:24.415008,15.38413113,.00054267,42.0028,6.0370,156.9364,203.1720,0,U,55982,999,17759,.28343617E-3,.10734E-3,0
BRO-9,2023-054H,2026-05-19T19:07:02.829792,15.83643171,.00080868,97.2966,56.1505,118.2434,241.9653,0,U,56185,999,17457,.89492337E-3,.200151E-2,0
ION SCV-010,2023-054Q,2026-05-20T05:26:55.190688,15.25923837,.00114158,97.3810,30.0851,309.1687,50.8536,0,U,56192,999,17193,.12447845E-3,.3125E-4,0
TELEOS-2,2023-057C,2026-05-20T07:05:58.105824,14.96364654,.00008365,9.9888,47.2570,263.8816,96.1302,0,U,56310,999,16861,.33042644E-3,.4533E-4,0
SNIPE 4,2023-072B,2026-05-20T05:46:31.148256,15.41147397,.00069297,97.5274,345.3816,74.5191,285.6820,0,U,56744,999,16580,.38788705E-3,.1601E-3,0
SNIPE 2,2023-072C,2026-05-20T07:07:56.200800,15.45319076,.00064221,97.5269,348.2970,98.9516,261.2460,0,U,56745,999,16593,.41673572E-3,.19808E-3,0
2023-072G,2023-072G,2026-05-20T07:09:34.056576,15.48876397,.00055708,97.4926,347.0737,90.4548,269.7341,0,U,56749,999,16614,.40733759E-3,.21893E-3,0
GEISAT PRECURSOR,2023-084C,2026-05-20T07:23:37.602240,15.34223993,.00071904,97.6192,280.3588,88.8456,271.3610,0,U,56934,999,16325,.15788886E-3,.5149E-4,0
BLACKJACK ACES-3,2023-084U,2026-05-20T07:03:08.323776,15.18276046,.00040727,97.6178,275.2833,101.3106,258.8586,0,U,56950,999,16293,.15411544E-3,.3088E-4,0
BLACKJACK ACES-2,2023-084Z,2026-05-20T02:27:46.960704,15.18281513,.00024114,97.6173,275.1757,90.9568,269.1942,0,U,56955,999,16291,.18161562E-3,.3652E-4,0
BLACKJACK ACES-1,2023-084AA,2026-05-20T06:55:08.923872,15.18200820,.00015122,97.6168,275.1399,95.0504,265.0903,0,U,56956,999,11266,.2164934E-3,.4357E-4,0
ION SCV-011,2023-084AB,2026-05-20T05:56:00.672000,15.28539869,.00083334,98.1382,324.9447,129.2040,230.9938,0,U,56957,999,16154,.13607011E-3,.3693E-4,0
GHOST-3,2023-084AC,2026-05-20T03:54:07.332768,15.46880506,.00067454,97.6190,287.2590,45.9475,314.2329,0,U,56958,999,16368,.25460798E-3,.12719E-3,0
TOMORROW-R2,2023-084AG,2026-05-20T04:13:32.478240,15.90445281,.000265,97.5947,300.7420,268.6073,91.4896,0,U,56962,999,16458,.55703423E-3,.168741E-2,.12591644E-4
AFR-1,2023-084AJ,2026-05-20T08:13:26.702688,15.28286845,.0011994,97.6240,276.3757,79.6937,280.5654,0,U,56964,999,16297,.11763438E-3,.3168E-4,0
METEOR-M2 3,2023-091A,2026-05-20T06:35:23.527968,14.24044119,.00028733,98.6097,195.8211,243.2237,116.8648,0,U,57166,999,15054,.1180524E-4,-.16E-6,0
UMKA 1 (RS40S),2023-091G,2026-05-20T03:03:15.111936,15.20457496,.00120843,97.5063,198.9372,210.7613,149.2915,0,U,57172,999,15974,.18691052E-3,.4016E-4,0
2023-091H,2023-091H,2026-05-20T06:58:59.925504,15.27962849,.0009538,97.5057,203.2691,202.7976,157.2841,0,U,57173,999,16004,.27471648E-3,.7429E-4,0
